[{"OBJECT_NAME":"STARLINK-3178","OBJECT_ID":"2022-010M","EPOCH":"2025-08-06T14:08:10.668768","MEAN_MOTION":15.08842402,"ECCENTRICITY":0.00017306,"INCLINATION":53.2163,"RA_OF_ASC_NODE":164.7457,"ARG_OF_PERICENTER":84.6281,"MEAN_ANOMALY":275.4908,"EPHEMERIS_TYPE":0,"CLASSIFICATION_TYPE":"U","NORAD_CAT_ID":51467,"ELEMENT_SET_NO":999,"REV_AT_EPOCH":19404,"BSTAR":-2.0695491e-5,"MEAN_MOTION_DOT":-6.17e-6,"MEAN_MOTION_DDOT":0},{"OBJECT_NAME":"STARLINK-3174","OBJECT_ID":"2022-010N","EPOCH":"2025-08-06T20:40:19.013088","MEAN_MOTION":15.08834648,"ECCENTRICITY":0.00014333,"INCLINATION":53.2167,"RA_OF_ASC_NODE":163.4865,"ARG_OF_PERICENTER":88.8662,"MEAN_ANOMALY":271.2494,"EPHEMERIS_TYPE":0,"CLASSIFICATION_TYPE":"U","NORAD_CAT_ID":51468,"ELEMENT_SET_NO":999,"REV_AT_EPOCH":19408,"BSTAR":-8.891237e-6,"MEAN_MOTION_DOT":-4.29e-6,"MEAN_MOTION_DDOT":0},{"OBJECT_NAME":"STARLINK-3182","OBJECT_ID":"2022-010P","EPOCH":"2025-08-06T13:09:53.500032","MEAN_MOTION":15.08835567,"ECCENTRICITY":0.00013621,"INCLINATION":53.2169,"RA_OF_ASC_NODE":164.9291,"ARG_OF_PERICENTER":89.1032,"MEAN_ANOMALY":271.0116,"EPHEMERIS_TYPE":0,"CLASSIFICATION_TYPE":"U","NORAD_CAT_ID":51469,"ELEMENT_SET_NO":999,"REV_AT_EPOCH":19434,"BSTAR":-7.46286e-6,"MEAN_MOTION_DOT":-4.07e-6,"MEAN_MOTION_DDOT":0},{"OBJECT_NAME":"STARLINK-3415","OBJECT_ID":"2022-010S","EPOCH":"2025-08-06T20:31:05.418048","MEAN_MOTION":15.08838635,"ECCENTRICITY":0.000152,"INCLINATION":53.2166,"RA_OF_ASC_NODE":163.4841,"ARG_OF_PERICENTER":95.449,"MEAN_ANOMALY":264.6675,"EPHEMERIS_TYPE":0,"CLASSIFICATION_TYPE":"U","NORAD_CAT_ID":51472,"ELEMENT_SET_NO":999,"REV_AT_EPOCH":19439,"BSTAR":2.668037e-5,"MEAN_MOTION_DOT":1.37e-6,"MEAN_MOTION_DDOT":0},{"OBJECT_NAME":"STARLINK-3528","OBJECT_ID":"2022-016A","EPOCH":"2025-08-06T17:29:37.180320","MEAN_MOTION":15.08833763,"ECCENTRICITY":0.00012973,"INCLINATION":53.2164,"RA_OF_ASC_NODE":214.0979,"ARG_OF_PERICENTER":78.8132,"MEAN_ANOMALY":281.3006,"EPHEMERIS_TYPE":0,"CLASSIFICATION_TYPE":"U","NORAD_CAT_ID":51714,"ELEMENT_SET_NO":999,"REV_AT_EPOCH":19097,"BSTAR":0.00012973361,"MEAN_MOTION_DOT":1.777e-5,"MEAN_MOTION_DDOT":0},{"OBJECT_NAME":"STARLINK-3533","OBJECT_ID":"2022-016B","EPOCH":"2025-08-06T09:22:06.183840","MEAN_MOTION":15.08821826,"ECCENTRICITY":0.00014625,"INCLINATION":53.2166,"RA_OF_ASC_NODE":215.649,"ARG_OF_PERICENTER":90.8311,"MEAN_ANOMALY":269.2849,"EPHEMERIS_TYPE":0,"CLASSIFICATION_TYPE":"U","NORAD_CAT_ID":51715,"ELEMENT_SET_NO":999,"REV_AT_EPOCH":19205,"BSTAR":7.3152149e-5,"MEAN_MOTION_DOT":8.76e-6,"MEAN_MOTION_DDOT":0},{"OBJECT_NAME":"STARLINK-3543","OBJECT_ID":"2022-016C","EPOCH":"2025-08-06T09:31:17.702688","MEAN_MOTION":15.08839928,"ECCENTRICITY":0.00013377,"INCLINATION":53.2161,"RA_OF_ASC_NODE":215.61,"ARG_OF_PERICENTER":75.7115,"MEAN_ANOMALY":284.4025,"EPHEMERIS_TYPE":0,"CLASSIFICATION_TYPE":"U","NORAD_CAT_ID":51716,"ELEMENT_SET_NO":999,"REV_AT_EPOCH":19092,"BSTAR":1.683054e-6,"MEAN_MOTION_DOT":-2.61e-6,"MEAN_MOTION_DDOT":0},{"OBJECT_NAME":"STARLINK-3445","OBJECT_ID":"2022-016D","EPOCH":"2025-08-06T09:38:00.260160","MEAN_MOTION":15.08825044,"ECCENTRICITY":0.00011547,"INCLINATION":53.2163,"RA_OF_ASC_NODE":215.6767,"ARG_OF_PERICENTER":79.3107,"MEAN_ANOMALY":280.8016,"EPHEMERIS_TYPE":0,"CLASSIFICATION_TYPE":"U","NORAD_CAT_ID":51717,"ELEMENT_SET_NO":999,"REV_AT_EPOCH":19092,"BSTAR":0.00012218828,"MEAN_MOTION_DOT":1.657e-5,"MEAN_MOTION_DDOT":0},{"OBJECT_NAME":"STARLINK-3546","OBJECT_ID":"2022-016E","EPOCH":"2025-08-06T23:23:16.430208","MEAN_MOTION":15.08837545,"ECCENTRICITY":0.00012121,"INCLINATION":53.2162,"RA_OF_ASC_NODE":213.0155,"ARG_OF_PERICENTER":77.8104,"MEAN_ANOMALY":282.3024,"EPHEMERIS_TYPE":0,"CLASSIFICATION_TYPE":"U","NORAD_CAT_ID":51718,"ELEMENT_SET_NO":999,"REV_AT_EPOCH":19213,"BSTAR":1.6603405e-5,"MEAN_MOTION_DOT":-2.4e-7,"MEAN_MOTION_DDOT":0},{"OBJECT_NAME":"STARLINK-3540","OBJECT_ID":"2022-016F","EPOCH":"2025-08-06T17:22:56.102016","MEAN_MOTION":15.08842279,"ECCENTRICITY":0.00012151,"INCLINATION":53.2162,"RA_OF_ASC_NODE":214.2175,"ARG_OF_PERICENTER":81.0238,"MEAN_ANOMALY":279.0892,"EPHEMERIS_TYPE":0,"CLASSIFICATION_TYPE":"U","NORAD_CAT_ID":51719,"ELEMENT_SET_NO":999,"REV_AT_EPOCH":19097,"BSTAR":3.0934146e-5,"MEAN_MOTION_DOT":2.05e-6,"MEAN_MOTION_DDOT":0},{"OBJECT_NAME":"STARLINK-3526","OBJECT_ID":"2022-016G","EPOCH":"2025-08-06T08:55:34.826304","MEAN_MOTION":15.08835395,"ECCENTRICITY":0.00011013,"INCLINATION":53.2167,"RA_OF_ASC_NODE":215.6919,"ARG_OF_PERICENTER":80.0165,"MEAN_ANOMALY":280.0952,"EPHEMERIS_TYPE":0,"CLASSIFICATION_TYPE":"U","NORAD_CAT_ID":51720,"ELEMENT_SET_NO":999,"REV_AT_EPOCH":19091,"BSTAR":2.9471368e-5,"MEAN_MOTION_DOT":1.81e-6,"MEAN_MOTION_DDOT":0},{"OBJECT_NAME":"STARLINK-3524","OBJECT_ID":"2022-016H","EPOCH":"2025-08-06T17:08:24.421056","MEAN_MOTION":15.08839313,"ECCENTRICITY":0.00010497,"INCLINATION":53.2166,"RA_OF_ASC_NODE":214.195,"ARG_OF_PERICENTER":72.2372,"MEAN_ANOMALY":287.8735,"EPHEMERIS_TYPE":0,"CLASSIFICATION_TYPE":"U","NORAD_CAT_ID":51721,"ELEMENT_SET_NO":999,"REV_AT_EPOCH":19097,"BSTAR":2.6216103e-5,"MEAN_MOTION_DOT":1.29e-6,"MEAN_MOTION_DDOT":0},{"OBJECT_NAME":"STARLINK-3535","OBJECT_ID":"2022-016J","EPOCH":"2025-08-06T21:31:59.585088","MEAN_MOTION":15.08836685,"ECCENTRICITY":0.0001205,"INCLINATION":53.2171,"RA_OF_ASC_NODE":213.3628,"ARG_OF_PERICENTER":83.5518,"MEAN_ANOMALY":276.5612,"EPHEMERIS_TYPE":0,"CLASSIFICATION_TYPE":"U","NORAD_CAT_ID":51722,"ELEMENT_SET_NO":999,"REV_AT_EPOCH":19099,"BSTAR":2.0325436e-5,"MEAN_MOTION_DOT":3.6e-7,"MEAN_MOTION_DDOT":0},{"OBJECT_NAME":"STARLINK-3529","OBJECT_ID":"2022-016L","EPOCH":"2025-08-06T07:02:55.051008","MEAN_MOTION":15.08834904,"ECCENTRICITY":0.00011397,"INCLINATION":53.2164,"RA_OF_ASC_NODE":216.0705,"ARG_OF_PERICENTER":71.823,"MEAN_ANOMALY":288.2886,"EPHEMERIS_TYPE":0,"CLASSIFICATION_TYPE":"U","NORAD_CAT_ID":51724,"ELEMENT_SET_NO":999,"REV_AT_EPOCH":19090,"BSTAR":1.688745e-6,"MEAN_MOTION_DOT":-2.61e-6,"MEAN_MOTION_DDOT":0},{"OBJECT_NAME":"STARLINK-3522","OBJECT_ID":"2022-016M","EPOCH":"2025-08-06T08:54:12.159648","MEAN_MOTION":15.08835625,"ECCENTRICITY":0.00011421,"INCLINATION":53.217,"RA_OF_ASC_NODE":215.7251,"ARG_OF_PERICENTER":83.1601,"MEAN_ANOMALY":276.9521,"EPHEMERIS_TYPE":0,"CLASSIFICATION_TYPE":"U","NORAD_CAT_ID":51725,"ELEMENT_SET_NO":999,"REV_AT_EPOCH":19091,"BSTAR":1.6848285e-5,"MEAN_MOTION_DOT":-2.0e-7,"MEAN_MOTION_DDOT":0},{"OBJECT_NAME":"STARLINK-3527","OBJECT_ID":"2022-016N","EPOCH":"2025-08-06T09:37:55.552224","MEAN_MOTION":15.08834532,"ECCENTRICITY":0.00011938,"INCLINATION":53.2164,"RA_OF_ASC_NODE":205.5875,"ARG_OF_PERICENTER":84.527,"MEAN_ANOMALY":275.5858,"EPHEMERIS_TYPE":0,"CLASSIFICATION_TYPE":"U","NORAD_CAT_ID":51726,"ELEMENT_SET_NO":999,"REV_AT_EPOCH":19106,"BSTAR":8.96773e-7,"MEAN_MOTION_DOT":-2.74e-6,"MEAN_MOTION_DDOT":0}]
