STARLINK-3178           
1 51467U 22010M   25218.58901237 -.00000617  00000+0 -20695-4 0  9992
2 51467  53.2163 164.7457 0001730  84.6281 275.4908 15.08842402194046
STARLINK-3174           
1 51468U 22010N   25218.86133117 -.00000429  00000+0 -88912-5 0  9996
2 51468  53.2167 163.4865 0001433  88.8662 271.2494 15.08834648194080
STARLINK-3182           
1 51469U 22010P   25218.54853588 -.00000407  00000+0 -74629-5 0  9999
2 51469  53.2169 164.9291 0001362  89.1032 271.0116 15.08835567194347
STARLINK-3415           
1 51472U 22010S   25218.85492382  .00000137  00000+0  26680-4 0  9999
2 51472  53.2166 163.4841 0001520  95.4490 264.6675 15.08838635194399
STARLINK-3528           
1 51714U 22016A   25218.72890255  .00001777  00000+0  12973-3 0  9991
2 51714  53.2164 214.0979 0001297  78.8132 281.3006 15.08833763190971
STARLINK-3533           
1 51715U 22016B   25218.39034935  .00000876  00000+0  73152-4 0  9996
2 51715  53.2166 215.6490 0001462  90.8311 269.2849 15.08821826192054
STARLINK-3543           
1 51716U 22016C   25218.39673267 -.00000261  00000+0  16831-5 0  9995
2 51716  53.2161 215.6100 0001337  75.7115 284.4025 15.08839928190924
STARLINK-3445           
1 51717U 22016D   25218.40139190  .00001657  00000+0  12219-3 0  9993
2 51717  53.2163 215.6767 0001154  79.3107 280.8016 15.08825044190928
STARLINK-3546           
1 51718U 22016E   25218.97449572 -.00000024  00000+0  16603-4 0  9994
2 51718  53.2162 213.0155 0001212  77.8104 282.3024 15.08837545192136
STARLINK-3540           
1 51719U 22016F   25218.72426044  .00000205  00000+0  30934-4 0  9990
2 51719  53.2162 214.2175 0001215  81.0238 279.0892 15.08842279190976
STARLINK-3526           
1 51720U 22016G   25218.37193086  .00000181  00000+0  29471-4 0  9997
2 51720  53.2167 215.6919 0001101  80.0165 280.0952 15.08835395190910
STARLINK-3524           
1 51721U 22016H   25218.71417154  .00000129  00000+0  26216-4 0  9997
2 51721  53.2166 214.1950 0001049  72.2372 287.8735 15.08839313190977
STARLINK-3535           
1 51722U 22016J   25218.89721742  .00000036  00000+0  20325-4 0  9990
2 51722  53.2171 213.3628 0001205  83.5518 276.5612 15.08836685190998
STARLINK-3529           
1 51724U 22016L   25218.29369272 -.00000261  00000+0  16887-5 0  9992
2 51724  53.2164 216.0705 0001139  71.8230 288.2886 15.08834904190901
STARLINK-3522           
1 51725U 22016M   25218.37097407 -.00000020  00000+0  16848-4 0  9999
2 51725  53.2170 215.7251 0001142  83.1601 276.9521 15.08835625190915
STARLINK-3527           
1 51726U 22016N   25218.40133741 -.00000274  00000+0  89677-6 0  9999
2 51726  53.2164 205.5875 0001193  84.5270 275.5858 15.08834532191062
